OBJECT_NAME,OBJECT_ID,EPOCH,MEAN_MOTION,ECCENTRICITY,INCLINATION,RA_OF_ASC_NODE,ARG_OF_PERICENTER,MEAN_ANOMALY,EPHEMERIS_TYPE,CLASSIFICATION_TYPE,NORAD_CAT_ID,ELEMENT_SET_NO,REV_AT_EPOCH,BSTAR,MEAN_MOTION_DOT,MEAN_MOTION_DDOT
UMBRA-10,2024-149CH,2026-07-18T23:03:10.110816,15.18914766,.00019227,97.6969,287.7610,159.4521,200.6791,0,U,60547,999,10555,.38728519E-3,.8016E-4,0
ICEYE-X33,2024-149CJ,2026-07-18T18:28:42.409056,15.00902716,.00018626,97.7374,278.7543,70.9954,289.1471,0,U,60548,999,10494,.19563066E-3,.243E-4,0
ICEYE-X40,2024-149CK,2026-07-18T18:20:01.454208,14.98088793,.00038583,97.6808,275.7523,354.6802,5.4379,0,U,60549,999,10480,.13347415E-3,.1521E-4,0
SATELIOT_1,2024-149CL,2026-07-18T18:03:42.709824,14.98171451,.00052594,97.6734,275.1249,342.4307,17.6733,0,U,60550,999,10479,.11032258E-3,.125E-4,0
BRO-14,2024-149CM,2026-07-18T18:16:11.977536,14.96242761,.00064597,97.6864,274.9711,7.5653,352.5665,0,U,60551,999,10471,.91469465E-4,.975E-5,0
SATELIOT_3,2024-149CN,2026-07-18T17:29:01.940352,14.98166936,.00047019,97.6811,275.9236,349.7723,10.3403,0,U,60552,999,10480,.40405611E-4,.421E-5,0
BRO-15,2024-149CP,2026-07-18T22:40:13.821024,14.96224703,.00073147,97.6789,274.7233,352.3483,7.7625,0,U,60553,999,10475,.5362576E-4,.548E-5,0
UM5-RIBAT,2024-149CQ,2026-07-18T19:13:09.875136,15.01226677,.00004167,97.6599,277.1717,301.9053,58.2131,0,U,60554,999,10493,.8695509E-4,.1057E-4,0
UM5-EOSAT,2024-149CR,2026-07-18T22:57:47.366208,15.01742432,.00089768,97.6778,278.3388,25.8701,334.2971,0,U,60555,999,10498,.13346522E-3,.1678E-4,0
LASARSAT,2024-247Q,2026-07-18T22:23:23.875872,15.48202624,.00079764,44.9739,83.5637,189.9528,170.1206,0,U,62391,999,8823,.39367272E-3,.20905E-3,0
CROCUBE,2024-247T,2026-07-18T16:41:52.956384,15.50367216,.00081473,44.9712,81.6809,194.4286,165.6374,0,U,62394,999,8823,.40085876E-3,.23011E-3,0
TEVEL2-4,2025-052D,2026-07-18T15:57:43.674912,15.35641020,.00032682,97.3855,96.1261,45.1827,314.9681,0,U,63213,999,7494,.30055382E-3,.10338E-3,0
TEVEL2-5,2025-052E,2026-07-18T22:47:56.772096,15.35457438,.00032296,97.3855,96.3502,45.9598,314.1911,0,U,63214,999,7498,.28271458E-3,.9662E-4,0
TEVEL2-6,2025-052F,2026-07-18T23:06:45.252864,15.35422134,.00033357,97.3857,96.3480,48.3774,311.7755,0,U,63215,999,7498,.29413433E-3,.10045E-3,0
TEVEL2-1,2025-052H,2026-07-18T05:18:28.836576,15.34835684,.0004044,97.3830,95.1910,53.7107,306.4510,0,U,63217,999,7485,.28401311E-3,.9517E-4,0
TEVEL2-3,2025-052J,2026-07-18T06:42:54.396000,15.34900151,.00037787,97.3839,95.2758,55.7421,304.4179,0,U,63218,999,7486,.296017E-3,.9943E-4,0
TEVEL2-2,2025-052K,2026-07-18T06:52:30.830016,15.34848337,.00040779,97.3833,95.2592,53.6322,306.5297,0,U,63219,999,7486,.28756579E-3,.9641E-4,0
TEVEL2-9,2025-052AD,2026-07-18T22:59:05.443296,15.32802414,.00073412,97.3893,95.2358,46.1700,314.0148,0,U,63237,999,7489,.28668863E-3,.9012E-4,0
TEVEL2-7,2025-052AE,2026-07-18T16:17:00.829248,15.32478825,.00074957,97.3894,94.8589,47.1803,313.0068,0,U,63238,999,7484,.26975076E-3,.8389E-4,0
TEVEL2-8,2025-052AF,2026-07-18T16:29:20.012352,15.32464515,.00075187,97.3898,94.8441,48.0936,312.0946,0,U,63239,999,7484,.26842033E-3,.8343E-4,0
FORESAIL-1 PRIME,2025-276DS,2026-07-18T18:02:17.677536,15.18955093,.00025805,97.4186,272.4479,37.1807,322.9605,0,U,66778,999,3519,.11424417E-3,.232E-4,0
